[
    {
        "Altitude(m)": 570115.1396088182,
        "Argument of Periapsis(deg)": 0.006622991110713501,
        "Eccentricity": 0.0,
        "Inclination(deg)": 53.0,
        "Latitude(deg)": -48.7646903400682,
        "Longitude(deg)": 110.46560138900841,
        "Mean Anomaly(deg)": -69.90840713242247,
        "RAAN(deg)": 269.990143368528,
        "Satellite Name": "Starlink Shell 1 1205",
        "Satellite Number": 1205,
        "Semi-Major Axis(m)": 6931778.249405717,
        "Time(s)": 190
    },
    {
        "Altitude(m)": 570009.5761159373,
        "Argument of Periapsis(deg)": 0.0069715695902247375,
        "Eccentricity": 0.0,
        "Inclination(deg)": 53.0,
        "Latitude(deg)": -48.50245007446569,
        "Longitude(deg)": 111.28047192366313,
        "Mean Anomaly(deg)": -69.28157592886564,
        "RAAN(deg)": 269.9896245984506,
        "Satellite Name": "Starlink Shell 1 1205",
        "Satellite Number": 1205,
        "Semi-Major Axis(m)": 6931778.249405717,
        "Time(s)": 200
    },
    {
        "Altitude(m)": 569901.2611409982,
        "Argument of Periapsis(deg)": 0.007320148069735974,
        "Eccentricity": 0.0,
        "Inclination(deg)": 53.0,
        "Latitude(deg)": -48.23389413138463,
        "Longitude(deg)": 112.08646877492494,
        "Mean Anomaly(deg)": -68.65474472530897,
        "RAAN(deg)": 269.98910582837306,
        "Satellite Name": "Starlink Shell 1 1205",
        "Satellite Number": 1205,
        "Semi-Major Axis(m)": 6931778.249405717,
        "Time(s)": 210
    },
    {
        "Altitude(m)": 569790.2376112788,
        "Argument of Periapsis(deg)": 0.007668726549247212,
        "Eccentricity": 0.0,
        "Inclination(deg)": 53.0,
        "Latitude(deg)": -47.95914545248215,
        "Longitude(deg)": 112.88356238733391,
        "Mean Anomaly(deg)": -68.02791352175227,
        "RAAN(deg)": 269.9885870582956,
        "Satellite Name": "Starlink Shell 1 1205",
        "Satellite Number": 1205,
        "Semi-Major Axis(m)": 6931778.249405717,
        "Time(s)": 220
    },
    {
        "Altitude(m)": 569676.5495082015,
        "Argument of Periapsis(deg)": 0.00801730502875845,
        "Eccentricity": 0.0,
        "Inclination(deg)": 53.0,
        "Latitude(deg)": -47.67832662894219,
        "Longitude(deg)": 113.67173489393586,
        "Mean Anomaly(deg)": -67.40108231819555,
        "RAAN(deg)": 269.9880682882182,
        "Satellite Name": "Starlink Shell 1 1205",
        "Satellite Number": 1205,
        "Semi-Major Axis(m)": 6931778.249405717,
        "Time(s)": 230
    },
    {
        "Altitude(m)": 569560.2418481103,
        "Argument of Periapsis(deg)": 0.008365883508269684,
        "Eccentricity": 0.0,
        "Inclination(deg)": 53.0,
        "Latitude(deg)": -47.391559739030555,
        "Longitude(deg)": 114.45098008020886,
        "Mean Anomaly(deg)": -66.77425111463877,
        "RAAN(deg)": 269.98754951814067,
        "Satellite Name": "Starlink Shell 1 1205",
        "Satellite Number": 1205,
        "Semi-Major Axis(m)": 6931778.249405717,
        "Time(s)": 240
    },
    {
        "Altitude(m)": 569441.3606626153,
        "Argument of Periapsis(deg)": 0.008714461987780921,
        "Eccentricity": 0.0,
        "Inclination(deg)": 53.0,
        "Latitude(deg)": -47.098966196608544,
        "Longitude(deg)": 115.22130182924498,
        "Mean Anomaly(deg)": -66.14741991108211,
        "RAAN(deg)": 269.98703074806315,
        "Satellite Name": "Starlink Shell 1 1205",
        "Satellite Number": 1205,
        "Semi-Major Axis(m)": 6931778.249405717,
        "Time(s)": 250
    },
    {
        "Altitude(m)": 569319.952978459,
        "Argument of Periapsis(deg)": 0.009063040467292158,
        "Eccentricity": 0.0,
        "Inclination(deg)": 53.0,
        "Latitude(deg)": -46.800666610492314,
        "Longitude(deg)": 115.98271407734245,
        "Mean Anomaly(deg)": -65.52058870752549,
        "RAAN(deg)": 269.98651197798574,
        "Satellite Name": "Starlink Shell 1 1205",
        "Satellite Number": 1205,
        "Semi-Major Axis(m)": 6931778.249405717,
        "Time(s)": 260
    },
    {
        "Altitude(m)": 569196.0667969504,
        "Argument of Periapsis(deg)": 0.009411618946803396,
        "Eccentricity": 0.0,
        "Inclination(deg)": 53.0,
        "Latitude(deg)": -46.49678065448587,
        "Longitude(deg)": 116.73524077026137,
        "Mean Anomaly(deg)": -64.89375750396869,
        "RAAN(deg)": 269.9859932079082,
        "Satellite Name": "Starlink Shell 1 1205",
        "Satellite Number": 1205,
        "Semi-Major Axis(m)": 6931778.249405717,
        "Time(s)": 270
    },
    {
        "Altitude(m)": 569069.7510729445,
        "Argument of Periapsis(deg)": 0.009760197426314633,
        "Eccentricity": 0.0,
        "Inclination(deg)": 53.0,
        "Latitude(deg)": -46.18742694786314,
        "Longitude(deg)": 117.47891431011197,
        "Mean Anomaly(deg)": -64.26692630041192,
        "RAAN(deg)": 269.98547443783076,
        "Satellite Name": "Starlink Shell 1 1205",
        "Satellite Number": 1205,
        "Semi-Major Axis(m)": 6931778.249405717,
        "Time(s)": 280
    },
    {
        "Altitude(m)": 568941.0556934115,
        "Argument of Periapsis(deg)": 0.01010877590582587,
        "Eccentricity": 0.0,
        "Inclination(deg)": 53.0,
        "Latitude(deg)": -45.87272294603332,
        "Longitude(deg)": 118.21377552116773,
        "Mean Anomaly(deg)": -63.640095096855305,
        "RAAN(deg)": 269.9849556677533,
        "Satellite Name": "Starlink Shell 1 1205",
        "Satellite Number": 1205,
        "Semi-Major Axis(m)": 6931778.249405717,
        "Time(s)": 290
    },
    {
        "Altitude(m)": 568810.0314555696,
        "Argument of Periapsis(deg)": 0.010457354385337106,
        "Eccentricity": 0.0,
        "Inclination(deg)": 53.0,
        "Latitude(deg)": -45.55278484108383,
        "Longitude(deg)": 118.93987362400253,
        "Mean Anomaly(deg)": -63.01326389329852,
        "RAAN(deg)": 269.98443689767583,
        "Satellite Name": "Starlink Shell 1 1205",
        "Satellite Number": 1205,
        "Semi-Major Axis(m)": 6931778.249405717,
        "Time(s)": 300
    },
    {
        "Altitude(m)": 568676.7300446072,
        "Argument of Periapsis(deg)": 0.010805932864848343,
        "Eccentricity": 0.0,
        "Inclination(deg)": 53.0,
        "Latitude(deg)": -45.22772747186417,
        "Longitude(deg)": 119.65726470707986,
        "Mean Anomaly(deg)": -62.38643268974186,
        "RAAN(deg)": 269.9839181275983,
        "Satellite Name": "Starlink Shell 1 1205",
        "Satellite Number": 1205,
        "Semi-Major Axis(m)": 6931778.249405717,
        "Time(s)": 310
    },
    {
        "Altitude(m)": 568541.2040110071,
        "Argument of Periapsis(deg)": 0.01115451134435958,
        "Eccentricity": 0.0,
        "Inclination(deg)": 53.0,
        "Latitude(deg)": -44.897664243248784,
        "Longitude(deg)": 120.36601172327524,
        "Mean Anomaly(deg)": -61.75960148618511,
        "RAAN(deg)": 269.9833993575209,
        "Satellite Name": "Starlink Shell 1 1205",
        "Satellite Number": 1205,
        "Semi-Major Axis(m)": 6931778.249405717,
        "Time(s)": 320
    },
    {
        "Altitude(m)": 568403.5067474802,
        "Argument of Periapsis(deg)": 0.011503089823870818,
        "Eccentricity": 0.0,
        "Inclination(deg)": 53.0,
        "Latitude(deg)": -44.56270705419791,
        "Longitude(deg)": 121.06618449994558,
        "Mean Anomaly(deg)": -61.13277028262844,
        "RAAN(deg)": 269.9828805874434,
        "Satellite Name": "Starlink Shell 1 1205",
        "Satellite Number": 1205,
        "Semi-Major Axis(m)": 6931778.249405717,
        "Time(s)": 330
    },
    {
        "Altitude(m)": 568263.6924654937,
        "Argument of Periapsis(deg)": 0.011851668303382053,
        "Eccentricity": 0.0,
        "Inclination(deg)": 53.0,
        "Latitude(deg)": -44.22296623421631,
        "Longitude(deg)": 121.75785825093361,
        "Mean Anomaly(deg)": -60.50593907907167,
        "RAAN(deg)": 269.9823618173659,
        "Satellite Name": "Starlink Shell 1 1205",
        "Satellite Number": 1205,
        "Semi-Major Axis(m)": 6931778.249405717,
        "Time(s)": 340
    },
    {
        "Altitude(m)": 568121.8161714461,
        "Argument of Periapsis(deg)": 0.012200246782893292,
        "Eccentricity": 0.0,
        "Inclination(deg)": 53.0,
        "Latitude(deg)": -43.878550487805335,
        "Longitude(deg)": 122.44111361727762,
        "Mean Anomaly(deg)": -59.87910787551495,
        "RAAN(deg)": 269.98184304728846,
        "Satellite Name": "Starlink Shell 1 1205",
        "Satellite Number": 1205,
        "Semi-Major Axis(m)": 6931778.249405717,
        "Time(s)": 350
    },
    {
        "Altitude(m)": 567977.9336424756,
        "Argument of Periapsis(deg)": 0.012548825262404526,
        "Eccentricity": 0.0,
        "Inclination(deg)": 53.0,
        "Latitude(deg)": -43.529566846492806,
        "Longitude(deg)": 123.11603672458644,
        "Mean Anomaly(deg)": -59.25227667195828,
        "RAAN(deg)": 269.981324277211,
        "Satellite Name": "Starlink Shell 1 1205",
        "Satellite Number": 1205,
        "Semi-Major Axis(m)": 6931778.249405717,
        "Time(s)": 360
    },
    {
        "Altitude(m)": 567832.1014019083,
        "Argument of Periapsis(deg)": 0.012897403741915765,
        "Eccentricity": 0.0,
        "Inclination(deg)": 53.0,
        "Latitude(deg)": -43.176120628022225,
        "Longitude(deg)": 123.78271774484881,
        "Mean Anomaly(deg)": -58.62544546840158,
        "RAAN(deg)": 269.9808055071335,
        "Satellite Name": "Starlink Shell 1 1205",
        "Satellite Number": 1205,
        "Semi-Major Axis(m)": 6931778.249405717,
        "Time(s)": 370
    }
]